YAOGAN-43 01D           
1 60461U 24148D   26068.43560480  .00010676  00000+0  37766-3 0  9999
2 60461  35.0010  61.7102 0002556 326.2473  33.8080 15.28369377 87008
STARLINK-32830          
1 63034U 25034F   26068.73607494  .00018267  00000+0  62718-3 0  9992
2 63034  53.1578 257.9268 0001575 135.6995 224.4132 15.30208554 59096
